*******************************************************************************
Ephemeris / WWW_USER Sat Dec 17 19:51:20 2016 Pasadena, USA      / Horizons    
*******************************************************************************
Target body name: Moon (301)                      {source: DE431mx}
Center body name: Earth (399)                     {source: DE431mx}
Center-site name: (user defined site below)
*******************************************************************************
Start time      : A.D. 2023-Nov-01 00:00:00.0000 UT      
Stop  time      : A.D. 2024-Mar-02 00:00:00.0000 UT      
Step-size       : 2 minutes
*******************************************************************************
Target pole/equ : IAU_MOON                        {East-longitude +}
Target radii    : 1737.4 x 1737.4 x 1737.4 km     {Equator, meridian, pole}    
Center geodetic : 241.855000,34.1456000,0.0000000 {E-lon(deg),Lat(deg),Alt(km)}
Center cylindric: 241.855000,5284.21009,3559.8244 {E-lon(deg),Dxy(km),Dz(km)}
Center pole/equ : High-precision EOP model        {East-longitude +}
Center radii    : 6378.1 x 6378.1 x 6356.8 km     {Equator, meridian, pole}    
Target primary  : Earth
Vis. interferer : MOON (R_eq= 1737.400) km        {source: DE431mx}
Rel. light bend : Sun, EARTH                      {source: DE431mx}
Rel. lght bnd GM: 1.3271E+11, 3.9860E+05 km^3/s^2                              
Atmos refraction: NO (AIRLESS)
RA format       : HMS
Time format     : CAL 
RTS-only print  : NO       
EOP file        : eop.161216.p170309                                           
EOP coverage    : DATA-BASED 1962-JAN-20 TO 2016-DEC-16. PREDICTS-> 2017-MAR-08
Units conversion: 1 au= 149597870.700 km, c= 299792.458 km/s, 1 day= 86400.0 s 
Table cut-offs 1: Elevation (-90.0deg=NO ),Airmass (>38.000=NO), Daylight (NO )
Table cut-offs 2: Solar Elongation (  0.0,180.0=NO ),Local Hour Angle( 0.0=NO )
*******************************************************************************
 Date__(UT)__HR:MN     Azi_(a-appr)_Elev
****************************************
$$SOE
 2023-Nov-23 03:12  m  155.1184  53.4653
 2023-Nov-23 03:14  m  155.8890  53.6426
 2023-Nov-23 03:16  m  156.6660  53.8150
 2023-Nov-23 03:18  m  157.4493  53.9823
 2023-Nov-23 03:20  m  158.2389  54.1445
 2023-Nov-23 03:22  m  159.0345  54.3015
 2023-Nov-23 03:24  m  159.8362  54.4532
 2023-Nov-23 03:26  m  160.6437  54.5997
 2023-Nov-23 03:28  m  161.4570  54.7407
 2023-Nov-23 03:30  m  162.2759  54.8763
 2023-Nov-23 03:32  m  163.1001  55.0064
 2023-Nov-23 03:34  m  163.9297  55.1308
 2023-Nov-23 03:36  m  164.7643  55.2497
 2023-Nov-23 03:38  m  165.6038  55.3628
 2023-Nov-23 03:40  m  166.4479  55.4702
 2023-Nov-23 03:42  m  167.2966  55.5718
 2023-Nov-23 03:44  m  168.1496  55.6675
 2023-Nov-23 03:46  m  169.0066  55.7573
 2023-Nov-23 03:48  m  169.8674  55.8411
 2023-Nov-23 03:50  m  170.7318  55.9190
 2023-Nov-23 03:52  m  171.5996  55.9908
 2023-Nov-23 03:54  m  172.4704  56.0565
 2023-Nov-23 03:56  m  173.3441  56.1160
 2023-Nov-23 03:58  m  174.2204  56.1695
 2023-Nov-23 04:00  m  175.0989  56.2167
 2023-Nov-23 04:02  m  175.9795  56.2577
 2023-Nov-23 04:04  m  176.8618  56.2925
 2023-Nov-23 04:06  m  177.7456  56.3211
 2023-Nov-23 04:08  m  178.6306  56.3434
 2023-Nov-23 04:10  m  179.5164  56.3594
 2023-Nov-23 04:12  m  180.4029  56.3691
 2023-Nov-23 04:14  m  181.2896  56.3726
 2023-Nov-23 04:16  t  182.1764  56.3697
 2023-Nov-23 04:18  m  183.0629  56.3606
 2023-Nov-23 04:20  m  183.9488  56.3452
 2023-Nov-23 04:22  m  184.8338  56.3235
 2023-Nov-23 04:24  m  185.7177  56.2955
 2023-Nov-23 04:26  m  186.6001  56.2614
 2023-Nov-23 04:28  m  187.4809  56.2209
 2023-Nov-23 04:30  m  188.3596  56.1743
 2023-Nov-23 04:32  m  189.2360  56.1215
 2023-Nov-23 04:34  m  190.1100  56.0626
 2023-Nov-23 04:36  m  190.9810  55.9975
 2023-Nov-23 04:38  m  191.8491  55.9264
 2023-Nov-23 04:40  m  192.7138  55.8493
 2023-Nov-23 04:42  m  193.5750  55.7661
 2023-Nov-23 04:44  m  194.4323  55.6771
 2023-Nov-23 04:46  m  195.2857  55.5821
 2023-Nov-23 04:48  m  196.1347  55.4812
 2023-Nov-23 04:50  m  196.9794  55.3746
 2023-Nov-23 04:52  m  197.8193  55.2623
 2023-Nov-23 04:54  m  198.6545  55.1442
 2023-Nov-23 04:56  m  199.4845  55.0205
 2023-Nov-23 04:58  m  200.3094  54.8913
 2023-Nov-23 05:00  m  201.1289  54.7566
 2023-Nov-23 05:02  m  201.9428  54.6164
 2023-Nov-23 05:04  m  202.7510  54.4709
 2023-Nov-23 05:06  m  203.5534  54.3201
 2023-Nov-23 05:08  m  204.3499  54.1641
 2023-Nov-23 05:10  m  205.1402  54.0029
 2023-Nov-23 05:12  m  205.9244  53.8366
 2023-Nov-23 05:14  m  206.7023  53.6653
 2023-Nov-23 05:16  m  207.4738  53.4891
 2023-Nov-23 05:18  m  208.2389  53.3080
 2023-Nov-23 05:20  m  208.9974  53.1221
 2023-Nov-23 05:22  m  209.7493  52.9314
 2023-Nov-23 05:24  m  210.4945  52.7362
 2023-Nov-23 05:26  m  211.2331  52.5364
 2023-Nov-23 05:28  m  211.9648  52.3321
 2023-Nov-23 05:30  m  212.6898  52.1234
 2023-Nov-23 05:32  m  213.4080  51.9103
 2023-Nov-23 05:34  m  214.1193  51.6930
 2023-Nov-23 05:36  m  214.8238  51.4715
 2023-Nov-23 05:38  m  215.5214  51.2459
 2023-Nov-23 05:40  m  216.2122  51.0162
 2023-Nov-23 05:42  m  216.8961  50.7826
 2023-Nov-23 05:44  m  217.5732  50.5451
 2023-Nov-23 05:46  m  218.2435  50.3038
 2023-Nov-23 05:48  m  218.9069  50.0587
 2023-Nov-23 05:50  m  219.5636  49.8100
 2023-Nov-23 05:52  m  220.2136  49.5577
 2023-Nov-23 05:54  m  220.8568  49.3018
 2023-Nov-23 05:56  m  221.4934  49.0425
 2023-Nov-23 05:58  m  222.1233  48.7798
 2023-Nov-23 06:00  m  222.7467  48.5138
 2023-Nov-23 06:02  m  223.3635  48.2445
 2023-Nov-23 06:04  m  223.9739  47.9721
 2023-Nov-23 06:06  m  224.5778  47.6965
 2023-Nov-23 06:08  m  225.1754  47.4178
 2023-Nov-23 06:10  m  225.7667  47.1362
 2023-Nov-23 06:12  m  226.3517  46.8516
 2023-Nov-23 06:14  m  226.9306  46.5642
 2023-Nov-23 06:16  m  227.5034  46.2740
 2023-Nov-23 06:18  m  228.0702  45.9810
 2023-Nov-23 06:20  m  228.6309  45.6853
 2023-Nov-23 06:22  m  229.1858  45.3870
 2023-Nov-23 06:24  m  229.7349  45.0861
 2023-Nov-23 06:26  m  230.2782  44.7827
 2023-Nov-23 06:28  m  230.8159  44.4769
 2023-Nov-23 06:30  m  231.3480  44.1686
 2023-Nov-23 06:32  m  231.8745  43.8580
 2023-Nov-23 06:34  m  232.3956  43.5450
 2023-Nov-23 06:36  m  232.9113  43.2298
 2023-Nov-23 06:38  m  233.4218  42.9125
 2023-Nov-23 06:40  m  233.9270  42.5929
 2023-Nov-23 06:42  m  234.4271  42.2713
 2023-Nov-23 06:44  m  234.9222  41.9475
 2023-Nov-23 06:46  m  235.4122  41.6218
 2023-Nov-23 06:48  m  235.8974  41.2941
 2023-Nov-23 06:50  m  236.3778  40.9645
 2023-Nov-23 06:52  m  236.8534  40.6330
 2023-Nov-23 06:54  m  237.3243  40.2997
 2023-Nov-23 06:56  m  237.7906  39.9645
 2023-Nov-23 06:58  m  238.2524  39.6276
 2023-Nov-23 07:00  m  238.7098  39.2890
 2023-Nov-23 07:02  m  239.1628  38.9488
 2023-Nov-23 07:04  m  239.6115  38.6068
 2023-Nov-23 07:06  m  240.0560  38.2633
 2023-Nov-23 07:08  m  240.4964  37.9182
 2023-Nov-23 07:10  m  240.9326  37.5716
 2023-Nov-23 07:12  m  241.3649  37.2235
 2023-Nov-23 07:14  m  241.7932  36.8740
 2023-Nov-23 07:16  m  242.2177  36.5230
 2023-Nov-23 07:18  m  242.6384  36.1706
 2023-Nov-23 07:20  m  243.0553  35.8169
 2023-Nov-23 07:22  m  243.4686  35.4618
 2023-Nov-23 07:24  m  243.8784  35.1055
 2023-Nov-23 07:26  m  244.2845  34.7479
 2023-Nov-23 07:28  m  244.6873  34.3890
 2023-Nov-23 07:30  m  245.0866  34.0290
 2023-Nov-23 07:32  m  245.4826  33.6677
 2023-Nov-23 07:34  m  245.8754  33.3053
 2023-Nov-23 07:36  m  246.2649  32.9419
 2023-Nov-23 07:38  m  246.6513  32.5773
 2023-Nov-23 07:40  m  247.0347  32.2116
 2023-Nov-23 07:42  m  247.4150  31.8449
 2023-Nov-23 07:44  m  247.7923  31.4772
 2023-Nov-23 07:46  m  248.1668  31.1085
 2023-Nov-23 07:48  m  248.5384  30.7388
 2023-Nov-23 07:50  m  248.9072  30.3682
 2023-Nov-23 07:52  m  249.2733  29.9967
 2023-Nov-23 07:54  m  249.6367  29.6243
 2023-Nov-23 07:56  m  249.9975  29.2510
 2023-Nov-23 07:58  m  250.3557  28.8768
 2023-Nov-23 08:00  m  250.7115  28.5018
 2023-Nov-23 08:02  m  251.0647  28.1261
 2023-Nov-23 08:04  m  251.4156  27.7495
 2023-Nov-23 08:06  m  251.7640  27.3722
 2023-Nov-23 08:08  m  252.1102  26.9941
 2023-Nov-23 08:10  m  252.4541  26.6153
 2023-Nov-23 08:12  m  252.7958  26.2357
 2023-Nov-23 08:14  m  253.1354  25.8555
 2023-Nov-23 08:16  m  253.4728  25.4747
 2023-Nov-23 08:18  m  253.8082  25.0931
 2023-Nov-23 08:20  m  254.1415  24.7110
 2023-Nov-23 08:22  m  254.4729  24.3282
 2023-Nov-23 08:24  m  254.8023  23.9448
 2023-Nov-23 08:26  m  255.1299  23.5609
 2023-Nov-23 08:28  m  255.4556  23.1763
 2023-Nov-23 08:30  m  255.7795  22.7913
 2023-Nov-23 08:32  m  256.1016  22.4057
 2023-Nov-23 08:34  m  256.4220  22.0196
 2023-Nov-23 08:36  m  256.7408  21.6329
 2023-Nov-23 08:38  m  257.0579  21.2458
 2023-Nov-23 08:40  m  257.3734  20.8583
 2023-Nov-23 08:42  m  257.6874  20.4703
 2023-Nov-23 08:44  m  257.9999  20.0818
 2023-Nov-23 08:46  m  258.3109  19.6929
 2023-Nov-23 08:48  m  258.6204  19.3036
 2023-Nov-23 08:50  m  258.9286  18.9139
 2023-Nov-23 08:52  m  259.2353  18.5238
 2023-Nov-23 08:54  m  259.5408  18.1334
 2023-Nov-23 08:56  m  259.8450  17.7426
 2023-Nov-23 08:58  m  260.1479  17.3514
 2023-Nov-23 09:00  m  260.4496  16.9600
 2023-Nov-23 09:02  m  260.7501  16.5682
 2023-Nov-23 09:04  m  261.0495  16.1761
 2023-Nov-23 09:06  m  261.3478  15.7837
 2023-Nov-23 09:08  m  261.6450  15.3910
 2023-Nov-23 09:10  m  261.9411  14.9981
 2023-Nov-23 09:12  m  262.2363  14.6049
 2023-Nov-23 09:14  m  262.5305  14.2115
 2023-Nov-23 09:16  m  262.8237  13.8178
 2023-Nov-23 09:18  m  263.1160  13.4240
 2023-Nov-23 09:20  m  263.4074  13.0299
 2023-Nov-23 09:22  m  263.6980  12.6356
 2023-Nov-23 09:24  m  263.9878  12.2411
 2023-Nov-23 09:26  m  264.2767  11.8465
 2023-Nov-23 09:28  m  264.5650  11.4517
 2023-Nov-23 09:30  m  264.8525  11.0568
 2023-Nov-23 09:32  m  265.1393  10.6617
 2023-Nov-23 09:34  m  265.4254  10.2665
